FENGYUN 1C DEB          
1 30892U 99025AYE 17341.23891548  .00000147  00000-0  10132-3 0  9995
2 30892  99.7207 350.3188 0040991  40.3160 320.1037 14.15137684557589
